[
    {
        "Altitude(m)": 611965.2002473671,
        "Argument of Periapsis(deg)": 0.0,
        "Eccentricity": 0.0,
        "Inclination(deg)": 60.0,
        "Latitude(deg)": 59.14020670397836,
        "Longitude(deg)": -171.0300208701606,
        "Mean Anomaly(deg)": 81.8182,
        "RAAN(deg)": 215.0,
        "Satellite Name": "Test1 951",
        "Satellite Number": 951,
        "Semi-Major Axis(m)": 6980739.136638005,
        "Time(s)": 0
    },
    {
        "Altitude(m)": 611995.8250803999,
        "Argument of Periapsis(deg)": 0.00010418945913296404,
        "Eccentricity": 0.0,
        "Inclination(deg)": 60.0,
        "Latitude(deg)": 59.2833047679172,
        "Longitude(deg)": -169.89665630668446,
        "Mean Anomaly(deg)": 82.43830614546181,
        "RAAN(deg)": 214.99957995086024,
        "Satellite Name": "Test1 951",
        "Satellite Number": 951,
        "Semi-Major Axis(m)": 6980739.136638005,
        "Time(s)": 10
    }
]